{
  "norad_id": 40554,
  "name": "GONETS-M 13",
  "history": [
    {
      "epoch": "2026-03-28T22:33:47.013408Z",
      "apogee_km": 1505.735006145418,
      "perigee_km": 1483.2028207605244,
      "latitude_deg": -1.7937012335720825e-05,
      "longitude_deg": -84.06525941611204,
      "height_km": 1506.0483298704835,
      "semi_major_axis_km": 7872.6059134529705,
      "eccentricity": 0.00143105,
      "inclination_deg": 82.4806,
      "raan_deg": 80.734,
      "arg_perigee_deg": 142.1657,
      "mean_anomaly_deg": 218.0431,
      "mean_motion_rev_day": 12.42867964
    },
    {
      "epoch": "2026-03-29T04:21:32.235840Z",
      "apogee_km": 1505.7544611128806,
      "perigee_km": 1483.1884162841961,
      "latitude_deg": 2.577778672554172e-05,
      "longitude_deg": -171.3923093597229,
      "height_km": 1506.0043908517616,
      "semi_major_axis_km": 7872.6084386985385,
      "eccentricity": 0.0014332,
      "inclination_deg": 82.4806,
      "raan_deg": 80.5834,
      "arg_perigee_deg": 141.6758,
      "mean_anomaly_deg": 218.5343,
      "mean_motion_rev_day": 12.42867366
    },
    {
      "epoch": "2026-03-30T05:28:28.038720Z",
      "apogee_km": 1505.777234439839,
      "perigee_km": 1483.1648997408965,
      "latitude_deg": 4.919977227028873e-05,
      "longitude_deg": 170.1912254298032,
      "height_km": 1505.739800878699,
      "semi_major_axis_km": 7872.6080670903675,
      "eccentricity": 0.00143614,
      "inclination_deg": 82.4804,
      "raan_deg": 79.9309,
      "arg_perigee_deg": 139.4343,
      "mean_anomaly_deg": 220.781,
      "mean_motion_rev_day": 12.42867454
    },
    {
      "epoch": "2026-03-30T05:28:28.043040Z",
      "apogee_km": 1505.7785574904065,
      "perigee_km": 1483.1637033749266,
      "latitude_deg": 6.877805795549107e-05,
      "longitude_deg": 170.19120995223693,
      "height_km": 1505.7426823137287,
      "semi_major_axis_km": 7872.608130432666,
      "eccentricity": 0.0014363,
      "inclination_deg": 82.4804,
      "raan_deg": 79.9309,
      "arg_perigee_deg": 139.4488,
      "mean_anomaly_deg": 220.7665,
      "mean_motion_rev_day": 12.42867439
    },
    {
      "epoch": "2026-03-30T15:08:03.329376Z",
      "apogee_km": 1505.7827475760332,
      "perigee_km": 1483.1579761830226,
      "latitude_deg": 6.0239572639394145e-05,
      "longitude_deg": 24.646368934264995,
      "height_km": 1505.627855880161,
      "semi_major_axis_km": 7872.607361879528,
      "eccentricity": 0.00143693,
      "inclination_deg": 82.4803,
      "raan_deg": 79.6798,
      "arg_perigee_deg": 138.5434,
      "mean_anomaly_deg": 221.6739,
      "mean_motion_rev_day": 12.42867621
    }
  ]
}